FLOCK 4H-16             
1 66719U 25276BF  26200.74417252  .00003516  00000+0  16555-3 0  9992
2 66719  97.4220 273.8103 0003045 232.8481 127.2476 15.20181963 35361
FLOCK 4H-18             
1 66721U 25276BH  26200.81633987  .00003721  00000+0  17530-3 0  9990
2 66721  97.4161 273.6911 0002219 263.6192  96.4791 15.20125214 35371
FLOCK 4H-19             
1 66722U 25276BJ  26200.87777399  .00002863  00000+0  13105-3 0  9993
2 66722  97.4162 274.2225 0002708 140.8880 219.2552 15.21312089 34706
FLOCK 4H-20             
1 66723U 25276BK  26200.81365012  .00003248  00000+0  14754-3 0  9992
2 66723  97.4200 274.2687 0003334 159.1541 200.9832 15.21477140 34657
FLOCK 4H-21             
1 66724U 25276BL  26200.78048366  .00003096  00000+0  14248-3 0  9998
2 66724  97.4165 274.0549 0003130 157.6329 202.5043 15.21060140 34643
FLOCK 4H-22             
1 66725U 25276BM  26200.76075464  .00003707  00000+0  17250-3 0  9991
2 66725  97.4156 273.7423 0001045 254.3250 105.7870 15.20557274 35373
FLOCK 4H-23             
1 66726U 25276BN  26200.81574351  .00003580  00000+0  16890-3 0  9995
2 66726  97.4226 273.8820 0003361 221.5749 138.5231 15.20102974 35374
FLOCK 4H-24             
1 66727U 25276BP  26200.73437330  .00003474  00000+0  16347-3 0  9991
2 66727  97.4218 273.8314 0002597 241.3749 118.7225 15.20213067 35362
FLOCK 4H-25             
1 66728U 25276BQ  26200.73341929  .00003372  00000+0  15527-3 0  9996
2 66728  97.4177 274.0002 0002040 123.9046 236.2384 15.20979043 34669
FLOCK 4H-26             
1 66729U 25276BR  26200.76863378  .00003258  00000+0  15474-3 0  9991
2 66729  97.4174 273.6423 0003433 242.1163 117.9724 15.19935006 35360
FLOCK 4H-27             
1 66730U 25276BS  26200.76456318  .00003276  00000+0  15171-3 0  9999
2 66730  97.4153 273.8813 0001769 125.3553 234.7848 15.20800788 35386
FLOCK 4H-29             
1 66732U 25276BU  26200.74774213  .00003629  00000+0  17128-3 0  9992
2 66732  97.4154 273.6038 0001783 252.2017 107.9023 15.20075890 35369
FLOCK 4H-30             
1 66733U 25276BV  26200.73927641  .00003810  00000+0  17904-3 0  9991
2 66733  97.4215 273.8074 0002843 241.4835 118.6114 15.20200030 35362
FLOCK 4H-31             
1 66734U 25276BW  26200.76092831  .00003138  00000+0  14897-3 0  9990
2 66734  97.4154 273.5832 0002247 249.5005 110.5989 15.19971517 35364
FLOCK 4H-32             
1 66735U 25276BX  26200.74847586  .00003314  00000+0  15661-3 0  9990
2 66735  97.4210 273.7714 0003276 239.1167 120.9746 15.20092179 35362
FLOCK 4H-33             
1 66736U 25276BY  26200.76905831  .00003226  00000+0  14764-3 0  9996
2 66736  97.4208 274.1922 0003090 150.6422 209.4988 15.21220188 35399
