{"fetched_at":"2026-07-20T07:40:25.481Z","source":"https://celestrak.org/NORAD/elements/gp.php?GROUP=planet&FORMAT=JSON","constellation":"superdove","records":[{"OBJECT_NAME":"FLOCK 4H-16","OBJECT_ID":"2025-276BF","EPOCH":"2026-07-19T17:51:36.505728","CLASSIFICATION_TYPE":"U","MEAN_MOTION":15.20181963,"ECCENTRICITY":0.0003045,"INCLINATION":97.422,"RA_OF_ASC_NODE":273.8103,"ARG_OF_PERICENTER":232.8481,"MEAN_ANOMALY":127.2476,"EPHEMERIS_TYPE":0,"NORAD_CAT_ID":66719,"ELEMENT_SET_NO":999,"REV_AT_EPOCH":3536,"BSTAR":0.00016555,"MEAN_MOTION_DOT":0.00003516,"MEAN_MOTION_DDOT":0},{"OBJECT_NAME":"FLOCK 4H-18","OBJECT_ID":"2025-276BH","EPOCH":"2026-07-19T19:35:31.764768","CLASSIFICATION_TYPE":"U","MEAN_MOTION":15.20125214,"ECCENTRICITY":0.0002219,"INCLINATION":97.4161,"RA_OF_ASC_NODE":273.6911,"ARG_OF_PERICENTER":263.6192,"MEAN_ANOMALY":96.4791,"EPHEMERIS_TYPE":0,"NORAD_CAT_ID":66721,"ELEMENT_SET_NO":999,"REV_AT_EPOCH":3537,"BSTAR":0.0001753,"MEAN_MOTION_DOT":0.00003721,"MEAN_MOTION_DDOT":0},{"OBJECT_NAME":"FLOCK 4H-19","OBJECT_ID":"2025-276BJ","EPOCH":"2026-07-19T21:03:59.672736","CLASSIFICATION_TYPE":"U","MEAN_MOTION":15.21312089,"ECCENTRICITY":0.0002708,"INCLINATION":97.4162,"RA_OF_ASC_NODE":274.2225,"ARG_OF_PERICENTER":140.888,"MEAN_ANOMALY":219.2552,"EPHEMERIS_TYPE":0,"NORAD_CAT_ID":66722,"ELEMENT_SET_NO":999,"REV_AT_EPOCH":3470,"BSTAR":0.00013105,"MEAN_MOTION_DOT":0.00002863,"MEAN_MOTION_DDOT":0},{"OBJECT_NAME":"FLOCK 4H-20","OBJECT_ID":"2025-276BK","EPOCH":"2026-07-19T19:31:39.370368","CLASSIFICATION_TYPE":"U","MEAN_MOTION":15.2147714,"ECCENTRICITY":0.0003334,"INCLINATION":97.42,"RA_OF_ASC_NODE":274.2687,"ARG_OF_PERICENTER":159.1541,"MEAN_ANOMALY":200.9832,"EPHEMERIS_TYPE":0,"NORAD_CAT_ID":66723,"ELEMENT_SET_NO":999,"REV_AT_EPOCH":3465,"BSTAR":0.00014754,"MEAN_MOTION_DOT":0.00003248,"MEAN_MOTION_DDOT":0},{"OBJECT_NAME":"FLOCK 4H-21","OBJECT_ID":"2025-276BL","EPOCH":"2026-07-19T18:43:53.788224","CLASSIFICATION_TYPE":"U","MEAN_MOTION":15.2106014,"ECCENTRICITY":0.000313,"INCLINATION":97.4165,"RA_OF_ASC_NODE":274.0549,"ARG_OF_PERICENTER":157.6329,"MEAN_ANOMALY":202.5043,"EPHEMERIS_TYPE":0,"NORAD_CAT_ID":66724,"ELEMENT_SET_NO":999,"REV_AT_EPOCH":3464,"BSTAR":0.00014248,"MEAN_MOTION_DOT":0.00003096,"MEAN_MOTION_DDOT":0},{"OBJECT_NAME":"FLOCK 4H-22","OBJECT_ID":"2025-276BM","EPOCH":"2026-07-19T18:15:29.200896","CLASSIFICATION_TYPE":"U","MEAN_MOTION":15.20557274,"ECCENTRICITY":0.0001045,"INCLINATION":97.4156,"RA_OF_ASC_NODE":273.7423,"ARG_OF_PERICENTER":254.325,"MEAN_ANOMALY":105.787,"EPHEMERIS_TYPE":0,"NORAD_CAT_ID":66725,"ELEMENT_SET_NO":999,"REV_AT_EPOCH":3537,"BSTAR":0.0001725,"MEAN_MOTION_DOT":0.00003707,"MEAN_MOTION_DDOT":0},{"OBJECT_NAME":"FLOCK 4H-23","OBJECT_ID":"2025-276BN","EPOCH":"2026-07-19T19:34:40.239264","CLASSIFICATION_TYPE":"U","MEAN_MOTION":15.20102974,"ECCENTRICITY":0.0003361,"INCLINATION":97.4226,"RA_OF_ASC_NODE":273.882,"ARG_OF_PERICENTER":221.5749,"MEAN_ANOMALY":138.5231,"EPHEMERIS_TYPE":0,"NORAD_CAT_ID":66726,"ELEMENT_SET_NO":999,"REV_AT_EPOCH":3537,"BSTAR":0.0001689,"MEAN_MOTION_DOT":0.0000358,"MEAN_MOTION_DDOT":0},{"OBJECT_NAME":"FLOCK 4H-24","OBJECT_ID":"2025-276BP","EPOCH":"2026-07-19T17:37:29.853120","CLASSIFICATION_TYPE":"U","MEAN_MOTION":15.20213067,"ECCENTRICITY":0.0002597,"INCLINATION":97.4218,"RA_OF_ASC_NODE":273.8314,"ARG_OF_PERICENTER":241.3749,"MEAN_ANOMALY":118.7225,"EPHEMERIS_TYPE":0,"NORAD_CAT_ID":66727,"ELEMENT_SET_NO":999,"REV_AT_EPOCH":3536,"BSTAR":0.00016347,"MEAN_MOTION_DOT":0.00003474,"MEAN_MOTION_DDOT":0},{"OBJECT_NAME":"FLOCK 4H-25","OBJECT_ID":"2025-276BQ","EPOCH":"2026-07-19T17:36:07.426656","CLASSIFICATION_TYPE":"U","MEAN_MOTION":15.20979043,"ECCENTRICITY":0.000204,"INCLINATION":97.4177,"RA_OF_ASC_NODE":274.0002,"ARG_OF_PERICENTER":123.9046,"MEAN_ANOMALY":236.2384,"EPHEMERIS_TYPE":0,"NORAD_CAT_ID":66728,"ELEMENT_SET_NO":999,"REV_AT_EPOCH":3466,"BSTAR":0.00015527,"MEAN_MOTION_DOT":0.00003372,"MEAN_MOTION_DDOT":0},{"OBJECT_NAME":"FLOCK 4H-26","OBJECT_ID":"2025-276BR","EPOCH":"2026-07-19T18:26:49.958592","CLASSIFICATION_TYPE":"U","MEAN_MOTION":15.19935006,"ECCENTRICITY":0.0003433,"INCLINATION":97.4174,"RA_OF_ASC_NODE":273.6423,"ARG_OF_PERICENTER":242.1163,"MEAN_ANOMALY":117.9724,"EPHEMERIS_TYPE":0,"NORAD_CAT_ID":66729,"ELEMENT_SET_NO":999,"REV_AT_EPOCH":3536,"BSTAR":0.00015474,"MEAN_MOTION_DOT":0.00003258,"MEAN_MOTION_DDOT":0},{"OBJECT_NAME":"FLOCK 4H-27","OBJECT_ID":"2025-276BS","EPOCH":"2026-07-19T18:20:58.258752","CLASSIFICATION_TYPE":"U","MEAN_MOTION":15.20800788,"ECCENTRICITY":0.0001769,"INCLINATION":97.4153,"RA_OF_ASC_NODE":273.8813,"ARG_OF_PERICENTER":125.3553,"MEAN_ANOMALY":234.7848,"EPHEMERIS_TYPE":0,"NORAD_CAT_ID":66730,"ELEMENT_SET_NO":999,"REV_AT_EPOCH":3538,"BSTAR":0.00015171,"MEAN_MOTION_DOT":0.00003276,"MEAN_MOTION_DDOT":0},{"OBJECT_NAME":"FLOCK 4H-29","OBJECT_ID":"2025-276BU","EPOCH":"2026-07-19T17:56:44.920032","CLASSIFICATION_TYPE":"U","MEAN_MOTION":15.2007589,"ECCENTRICITY":0.0001783,"INCLINATION":97.4154,"RA_OF_ASC_NODE":273.6038,"ARG_OF_PERICENTER":252.2017,"MEAN_ANOMALY":107.9023,"EPHEMERIS_TYPE":0,"NORAD_CAT_ID":66732,"ELEMENT_SET_NO":999,"REV_AT_EPOCH":3536,"BSTAR":0.00017128,"MEAN_MOTION_DOT":0.00003629,"MEAN_MOTION_DDOT":0},{"OBJECT_NAME":"FLOCK 4H-30","OBJECT_ID":"2025-276BV","EPOCH":"2026-07-19T17:44:33.481824","CLASSIFICATION_TYPE":"U","MEAN_MOTION":15.2020003,"ECCENTRICITY":0.0002843,"INCLINATION":97.4215,"RA_OF_ASC_NODE":273.8074,"ARG_OF_PERICENTER":241.4835,"MEAN_ANOMALY":118.6114,"EPHEMERIS_TYPE":0,"NORAD_CAT_ID":66733,"ELEMENT_SET_NO":999,"REV_AT_EPOCH":3536,"BSTAR":0.00017904,"MEAN_MOTION_DOT":0.0000381,"MEAN_MOTION_DDOT":0},{"OBJECT_NAME":"FLOCK 4H-31","OBJECT_ID":"2025-276BW","EPOCH":"2026-07-19T18:15:44.205984","CLASSIFICATION_TYPE":"U","MEAN_MOTION":15.19971517,"ECCENTRICITY":0.0002247,"INCLINATION":97.4154,"RA_OF_ASC_NODE":273.5832,"ARG_OF_PERICENTER":249.5005,"MEAN_ANOMALY":110.5989,"EPHEMERIS_TYPE":0,"NORAD_CAT_ID":66734,"ELEMENT_SET_NO":999,"REV_AT_EPOCH":3536,"BSTAR":0.00014897,"MEAN_MOTION_DOT":0.00003138,"MEAN_MOTION_DDOT":0},{"OBJECT_NAME":"FLOCK 4H-32","OBJECT_ID":"2025-276BX","EPOCH":"2026-07-19T17:57:48.314304","CLASSIFICATION_TYPE":"U","MEAN_MOTION":15.20092179,"ECCENTRICITY":0.0003276,"INCLINATION":97.421,"RA_OF_ASC_NODE":273.7714,"ARG_OF_PERICENTER":239.1167,"MEAN_ANOMALY":120.9746,"EPHEMERIS_TYPE":0,"NORAD_CAT_ID":66735,"ELEMENT_SET_NO":999,"REV_AT_EPOCH":3536,"BSTAR":0.00015661,"MEAN_MOTION_DOT":0.00003314,"MEAN_MOTION_DDOT":0},{"OBJECT_NAME":"FLOCK 4H-33","OBJECT_ID":"2025-276BY","EPOCH":"2026-07-19T18:27:26.637984","CLASSIFICATION_TYPE":"U","MEAN_MOTION":15.21220188,"ECCENTRICITY":0.000309,"INCLINATION":97.4208,"RA_OF_ASC_NODE":274.1922,"ARG_OF_PERICENTER":150.6422,"MEAN_ANOMALY":209.4988,"EPHEMERIS_TYPE":0,"NORAD_CAT_ID":66736,"ELEMENT_SET_NO":999,"REV_AT_EPOCH":3539,"BSTAR":0.00014764,"MEAN_MOTION_DOT":0.00003226,"MEAN_MOTION_DDOT":0}]}
